NORAD_CAT_ID,OBJECT_NAME,OBJECT_TYPE,EPOCH,MEAN_MOTION,ECCENTRICITY,INCLINATION,RA_OF_ASC_NODE,ARG_OF_PERICENTER,MEAN_ANOMALY,BSTAR,MEAN_MOTION_DOT,MEAN_MOTION_DDOT,TLE_LINE0,TLE_LINE1,TLE_LINE2,SEMIMAJOR_AXIS,PERIOD,APOGEE,PERIGEE,DECAYED
52569.0,STARLINK-3927,PAYLOAD,2024-05-27 05:29:33,15.0885121,0.0001737,53.2158,163.6429,123.5711,236.5448,-0.00014435,-2.585e-05,0.0,0 STARLINK-3927,1 52569U 22051AN  24148.22886286 -.00002585  00000-0 -14435-3 0  9990,2 52569  53.2158 163.6429 0001737 123.5711 236.5448 15.08851210113303,6917.846,95.437,540.913,538.509,0.0
52569.0,STARLINK-3927,PAYLOAD,2024-05-27 08:40:20,15.08836452,0.0002018,53.2168,163.0466,132.4732,227.643,0.0001226,1.663e-05,0.0,0 STARLINK-3927,1 52569U 22051AN  24148.36134380  .00001663  00000-0  12260-3 0  9994,2 52569  53.2168 163.0466 0002018 132.4732 227.6430 15.08836452113251,6917.891,95.438,541.152,538.36,0.0
52569.0,STARLINK-3927,PAYLOAD,2024-05-27 18:12:39,15.0883745,0.00015,53.2165,161.2646,76.0315,284.0844,7.8086e-05,9.55e-06,0.0,0 STARLINK-3927,1 52569U 22051AN  24148.75878753  .00000955  00000-0  78086-4 0  9998,2 52569  53.2165 161.2646 0001500  76.0315 284.0844 15.08837450113382,6917.888,95.438,540.791,538.716,0.0
52569.0,STARLINK-3927,PAYLOAD,2024-05-28 06:55:43,15.08843802,0.0001423,53.2156,158.8851,80.4456,279.6697,9.6904e-05,1.255e-05,0.0,0 STARLINK-3927,1 52569U 22051AN  24149.28870193  .00001255  00000-0  96904-4 0  9990,2 52569  53.2156 158.8851 0001423  80.4456 279.6697 15.08843802113464,6917.869,95.437,540.718,538.749,0.0
52569.0,STARLINK-3927,PAYLOAD,2024-05-29 09:57:17,15.08842006,0.0001307,53.2166,153.8301,92.1593,267.9549,6.464e-05,7.41e-06,0.0,0 STARLINK-3927,1 52569U 22051AN  24150.41478174  .00000741  00000-0  64640-4 0  9991,2 52569  53.2166 153.8301 0001307  92.1593 267.9549 15.08842006113633,6917.874,95.437,540.643,538.835,0.0
52569.0,STARLINK-3927,PAYLOAD,2024-05-30 09:48:04,15.08838722,0.0001417,53.2167,149.3692,97.9151,262.2002,1.1782e-05,-1e-06,0.0,0 STARLINK-3927,1 52569U 22051AN  24151.40838617 -.00000100  00000-0  11782-4 0  9992,2 52569  53.2167 149.3692 0001417  97.9151 262.2002 15.08838722113780,6917.884,95.438,540.73,538.769,0.0
52569.0,STARLINK-3927,PAYLOAD,2024-05-31 06:28:04,15.08842361,0.000144,53.217,145.5027,100.1533,259.9622,9.7833e-05,1.269e-05,0.0,0 STARLINK-3927,1 52569U 22051AN  24152.26950230  .00001269  00000-0  97833-4 0  9990,2 52569  53.2170 145.5027 0001440 100.1533 259.9622 15.08842361113843,6917.873,95.437,540.734,538.742,0.0
52569.0,STARLINK-3927,PAYLOAD,2024-05-31 06:28:05,15.08842049,0.0001454,53.2172,145.5028,99.855,260.2606,8.8115e-05,1.115e-05,0.0,0 STARLINK-3927,1 52569U 22051AN  24152.26950262  .00001115  00000-0  88115-4 0  9998,2 52569  53.2172 145.5028 0001454  99.8550 260.2606 15.08842049113844,6917.874,95.437,540.745,538.733,0.0
52569.0,STARLINK-3927,PAYLOAD,2024-06-01 04:43:29,15.08839372,0.0001364,53.2166,141.3412,88.2044,271.9104,7.3453e-05,8.81e-06,0.0,0 STARLINK-3927,1 52569U 22051AN  24153.19686577  .00000881  00000-0  73453-4 0  9994,2 52569  53.2166 141.3412 0001364  88.2044 271.9104 15.08839372114059,6917.882,95.438,540.691,538.804,0.0
52569.0,STARLINK-3927,PAYLOAD,2024-06-01 06:18:52,15.08840477,0.0001362,53.2167,141.0442,88.9229,271.192,7.9593e-05,9.79e-06,0.0,0 STARLINK-3927,1 52569U 22051AN  24153.26310492  .00000979  00000-0  79593-4 0  9991,2 52569  53.2167 141.0442 0001362  88.9229 271.1920 15.08840477113998,6917.879,95.438,540.686,538.802,0.0
52569.0,STARLINK-3927,PAYLOAD,2024-06-02 06:09:39,15.08839384,0.0001353,53.2165,136.584,89.8286,270.2861,3.204e-05,2.22e-06,0.0,0 STARLINK-3927,1 52569U 22051AN  24154.25670790  .00000222  00000-0  32040-4 0  9998,2 52569  53.2165 136.5840 0001353  89.8286 270.2861 15.08839384114215,6917.882,95.438,540.683,538.811,0.0
52569.0,STARLINK-3927,PAYLOAD,2024-06-02 15:41:58,15.08839573,0.0001345,53.2164,134.7998,89.5022,270.6124,3.5001e-05,2.69e-06,0.0,0 STARLINK-3927,1 52569U 22051AN  24154.65414812  .00000269  00000-0  35001-4 0  9994,2 52569  53.2164 134.7998 0001345  89.5022 270.6124 15.08839573114209,6917.882,95.438,540.677,538.816,0.0
52569.0,STARLINK-3927,PAYLOAD,2024-06-03 07:35:49,15.08838779,0.0001347,53.2167,131.8259,89.3134,270.8012,2.6703e-05,1.37e-06,0.0,0 STARLINK-3927,1 52569U 22051AN  24155.31655041  .00000137  00000-0  26703-4 0  9992,2 52569  53.2167 131.8259 0001347  89.3134 270.8012 15.08838779114377,6917.884,95.438,540.681,538.817,0.0
52569.0,STARLINK-3927,PAYLOAD,2024-06-03 21:54:18,15.08838502,0.000135,53.2164,129.1489,87.646,272.4687,6.7164e-05,7.81e-06,0.0,0 STARLINK-3927,1 52569U 22051AN  24155.91271027  .00000781  00000-0  67164-4 0  9997,2 52569  53.2164 129.1489 0001350  87.6460 272.4687 15.08838502114398,6917.885,95.438,540.684,538.816,0.0
52569.0,STARLINK-3927,PAYLOAD,2024-06-04 04:15:50,15.08841553,0.0001314,53.2162,127.9593,88.4046,271.7097,9.1221e-05,1.164e-05,0.0,0 STARLINK-3927,1 52569U 22051AN  24156.17766786  .00001164  00000-0  91221-4 0  9994,2 52569  53.2162 127.9593 0001314  88.4046 271.7097 15.08841553114439,6917.876,95.437,540.65,538.832,0.0
52569.0,STARLINK-3927,PAYLOAD,2024-06-04 15:23:32,15.08843941,0.0001274,53.2162,125.8767,87.0037,273.1101,3.3661e-05,2.48e-06,0.0,0 STARLINK-3927,1 52569U 22051AN  24156.64134759  .00000248  00000-0  33661-4 0  9991,2 52569  53.2162 125.8767 0001274  87.0037 273.1101 15.08843941114579,6917.868,95.437,540.615,538.852,0.0
52569.0,STARLINK-3927,PAYLOAD,2024-06-04 21:45:05,15.0883716,0.000129,53.2162,124.6879,88.1179,271.9961,8.1483e-05,1.009e-05,0.0,0 STARLINK-3927,1 52569U 22051AN  24156.90631119  .00001009  00000-0  81483-4 0  9993,2 52569  53.2162 124.6879 0001290  88.1179 271.9961 15.08837160114540,6917.889,95.438,540.646,538.862,0.0
52569.0,STARLINK-3927,PAYLOAD,2024-06-05 04:06:38,15.08833332,0.0001405,53.2169,123.4986,87.617,272.4983,1.2188e-06,-2.69e-06,0.0,0 STARLINK-3927,1 52569U 22051AN  24157.17127625 -.00000269  00000-0  12188-5 0  9990,2 52569  53.2169 123.4986 0001405  87.6170 272.4983 15.08833332114655,6917.901,95.438,540.738,538.794,0.0
52569.0,STARLINK-3927,PAYLOAD,2024-06-05 07:17:23,15.08845158,0.0001366,53.2169,122.9038,87.8328,272.2821,0.00010053,1.313e-05,0.0,0 STARLINK-3927,1 52569U 22051AN  24157.30374609  .00001313  00000-0  10053-3 0  9998,2 52569  53.2169 122.9038 0001366  87.8328 272.2821 15.08845158114670,6917.865,95.437,540.675,538.785,0.0
52569.0,STARLINK-3927,PAYLOAD,2024-06-05 15:14:19,15.08840788,0.0001423,53.2169,121.4167,89.8001,270.3154,6.6131e-05,7.65e-06,0.0,0 STARLINK-3927,1 52569U 22051AN  24157.63495005  .00000765  00000-0  66131-4 0  9997,2 52569  53.2169 121.4167 0001423  89.8001 270.3154 15.08840788114729,6917.878,95.438,540.727,538.759,0.0
52569.0,STARLINK-3927,PAYLOAD,2024-06-06 03:57:24,15.08839437,0.0001196,53.2174,119.0356,101.9873,258.1253,0.00014285,1.986e-05,0.0,0 STARLINK-3927,1 52569U 22051AN  24158.16486799  .00001986  00000-0  14285-3 0  9994,2 52569  53.2174 119.0356 0001196 101.9873 258.1253 15.08839437114732,6917.882,95.438,540.574,538.92,0.0
52569.0,STARLINK-3927,PAYLOAD,2024-06-06 21:26:39,15.08831029,0.0001347,53.2177,115.7655,98.3969,261.7176,6.3562e-05,7.24e-06,0.0,0 STARLINK-3927,1 52569U 22051AN  24158.89351664  .00000724  00000-0  63562-4 0  9998,2 52569  53.2177 115.7655 0001347  98.3969 261.7176 15.08831029114916,6917.908,95.438,540.705,538.841,0.0
52569.0,STARLINK-3927,PAYLOAD,2024-06-08 03:38:59,15.08844474,0.0001254,53.2173,110.1187,91.0597,269.0539,9.1911e-05,1.175e-05,0.0,0 STARLINK-3927,1 52569U 22051AN  24160.15207177  .00001175  00000-0  91911-4 0  9999,2 52569  53.2173 110.1187 0001254  91.0597 269.0539 15.08844474115109,6917.867,95.437,540.599,538.864,0.0
52569.0,STARLINK-3927,PAYLOAD,2024-06-08 21:08:14,15.0883421,0.0001322,53.2183,106.8481,103.4937,256.6202,5.803e-05,6.36e-06,0.0,0 STARLINK-3927,1 52569U 22051AN  24160.88072038  .00000636  00000-0  58030-4 0  9991,2 52569  53.2183 106.8481 0001322 103.4937 256.6202 15.08834210115219,6917.898,95.438,540.678,538.849,0.0
52569.0,STARLINK-3927,PAYLOAD,2024-06-09 03:29:46,15.08846168,6.9e-05,53.2179,105.6588,52.1187,307.9867,-1.0303e-05,-4.52e-06,0.0,0 STARLINK-3927,1 52569U 22051AN  24161.14567413 -.00000452  00000-0 -10303-4 0  9996,2 52569  53.2179 105.6588 0000690  52.1187 307.9867 15.08846168115259,6917.862,95.437,540.204,539.249,0.0
52569.0,STARLINK-3927,PAYLOAD,2024-06-09 20:59:01,15.08840051,0.000104,53.2175,102.3878,96.8216,263.2895,-8.1554e-07,-3.01e-06,0.0,0 STARLINK-3927,1 52569U 22051AN  24161.87432294 -.00000301  00000-0 -81554-6 0  9995,2 52569  53.2175 102.3878 0001040  96.8216 263.2895 15.08840051115361,6917.88,95.438,540.465,539.026,0.0
52569.0,STARLINK-3927,PAYLOAD,2024-06-10 04:55:56,15.08845508,0.000131,53.2183,100.9042,112.3631,247.75,6.337e-05,7.21e-06,0.0,0 STARLINK-3927,1 52569U 22051AN  24162.20551770  .00000721  00000-0  63370-4 0  9992,2 52569  53.2183 100.9042 0001310 112.3631 247.7500 15.08845508115410,6917.864,95.437,540.635,538.822,0.0
52569.0,STARLINK-3927,PAYLOAD,2024-06-11 04:46:43,15.08842412,0.000137,53.2185,96.4383,102.512,257.6026,9.5476e-05,1.232e-05,0.0,0 STARLINK-3927,1 52569U 22051AN  24163.19912025  .00001232  00000-0  95476-4 0  9995,2 52569  53.2185  96.4383 0001370 102.5120 257.6026 15.08842412115569,6917.873,95.437,540.686,538.79,0.0
52569.0,STARLINK-3927,PAYLOAD,2024-06-11 12:43:40,15.08837933,0.0001285,53.2181,94.9546,84.6812,275.4326,8.6125e-05,1.083e-05,0.0,0 STARLINK-3927,1 52569U 22051AN  24163.53032545  .00001083  00000-0  86125-4 0  9998,2 52569  53.2181  94.9546 0001285  84.6812 275.4326 15.08837933115543,6917.887,95.438,540.641,538.863,0.0
52569.0,STARLINK-3927,PAYLOAD,2024-06-12 04:37:31,15.08844143,0.0001231,53.2174,91.9784,91.4296,268.6837,9.3279e-05,1.197e-05,0.0,0 STARLINK-3927,1 52569U 22051AN  24164.19272314  .00001197  00000-0  93279-4 0  9995,2 52569  53.2174  91.9784 0001231  91.4296 268.6837 15.08844143115642,6917.868,95.437,540.584,538.881,0.0
